{
  "type": "FeatureCollection",
  "features": [
    {
      "type": "Feature",
      "properties": {
        "norad_id": 30603,
        "name": "FENGYUN 1C DEB",
        "group": "fengyun-1c-debris",
        "lat": 43.637599822621866,
        "lon": -169.33538185474472,
        "alt_km": 946.3188220031361,
        "timestamp": "2025-12-04T19:33:59.880588+00:00",
        "meta_object_name": "FENGYUN 1C DEB",
        "meta_object_id": "1999-025AMJ",
        "meta_epoch": "2025-12-02T01:06:38.105568",
        "meta_mean_motion": 13.84066911,
        "meta_eccentricity": 0.01829228,
        "meta_inclination": 98.4104,
        "meta_ra_of_asc_node": 0.074,
        "meta_arg_of_pericenter": 234.5598,
        "meta_mean_anomaly": 153.8128,
        "meta_ephemeris_type": 0,
        "meta_classification_type": "U",
        "meta_norad_cat_id": 30603,
        "meta_element_set_no": 999,
        "meta_rev_at_epoch": 94728,
        "meta_bstar": 0.0014668065,
        "meta_mean_motion_dot": 1.819e-05,
        "meta_mean_motion_ddot": 0,
        "tle_line1": "1 30603U 99025AMJ 25336.04627437  .00001819  00000+0  14668-2 0  9994",
        "tle_line2": "2 30603  98.4104   0.0740 0182922 234.5598 153.8128 13.84066911947288"
      },
      "geometry": {
        "type": "Point",
        "coordinates": [
          -169.33538185474472,
          43.637599822621866
        ]
      }
    },
    {
      "type": "Feature",
      "properties": {
        "norad_id": 30604,
        "name": "FENGYUN 1C DEB",
        "group": "fengyun-1c-debris",
        "lat": 58.35476146731714,
        "lon": -152.12052877152024,
        "alt_km": 805.848133927695,
        "timestamp": "2025-12-04T19:33:59.880597+00:00",
        "meta_object_name": "FENGYUN 1C DEB",
        "meta_object_id": "1999-025AMK",
        "meta_epoch": "2025-12-03T13:22:29.164800",
        "meta_mean_motion": 14.23585367,
        "meta_eccentricity": 0.02102419,
        "meta_inclination": 98.4036,
        "meta_ra_of_asc_node": 12.7982,
        "meta_arg_of_pericenter": 33.6981,
        "meta_mean_anomaly": 121.027,
        "meta_ephemeris_type": 0,
        "meta_classification_type": "U",
        "meta_norad_cat_id": 30604,
        "meta_element_set_no": 999,
        "meta_rev_at_epoch": 97708,
        "meta_bstar": 0.00041869288,
        "meta_mean_motion_dot": 1.154e-05,
        "meta_mean_motion_ddot": 0,
        "tle_line1": "1 30604U 99025AMK 25337.55728200  .00001154  00000+0  41869-3 0  9998",
        "tle_line2": "2 30604  98.4036  12.7982 0210241  33.6981 121.0270 14.23585367977082"
      },
      "geometry": {
        "type": "Point",
        "coordinates": [
          -152.12052877152024,
          58.35476146731714
        ]
      }
    },
    {
      "type": "Feature",
      "properties": {
        "norad_id": 30606,
        "name": "FENGYUN 1C DEB",
        "group": "fengyun-1c-debris",
        "lat": -42.34394412308279,
        "lon": 161.72992077139142,
        "alt_km": 631.8220939472822,
        "timestamp": "2025-12-04T19:33:59.880606+00:00",
        "meta_object_name": "FENGYUN 1C DEB",
        "meta_object_id": "1999-025AMM",
        "meta_epoch": "2025-12-03T13:29:53.970144",
        "meta_mean_motion": 14.57532958,
        "meta_eccentricity": 0.02138983,
        "meta_inclination": 98.096,
        "meta_ra_of_asc_node": 347.9639,
        "meta_arg_of_pericenter": 165.6956,
        "meta_mean_anomaly": 324.9977,
        "meta_ephemeris_type": 0,
        "meta_classification_type": "U",
        "meta_norad_cat_id": 30606,
        "meta_element_set_no": 999,
        "meta_rev_at_epoch": 99108,
        "meta_bstar": 0.00087947161,
        "meta_mean_motion_dot": 5.43e-05,
        "meta_mean_motion_ddot": 0,
        "tle_line1": "1 30606U 99025AMM 25337.56243021  .00005430  00000+0  87947-3 0  9992",
        "tle_line2": "2 30606  98.0960 347.9639 0213898 165.6956 324.9977 14.57532958991086"
      },
      "geometry": {
        "type": "Point",
        "coordinates": [
          161.72992077139142,
          -42.34394412308279
        ]
      }
    },
    {
      "type": "Feature",
      "properties": {
        "norad_id": 30608,
        "name": "FENGYUN 1C DEB",
        "group": "fengyun-1c-debris",
        "lat": 56.898825763827666,
        "lon": 27.891569073077246,
        "alt_km": 800.6656710517336,
        "timestamp": "2025-12-04T19:33:59.880615+00:00",
        "meta_object_name": "FENGYUN 1C DEB",
        "meta_object_id": "1999-025AMP",
        "meta_epoch": "2025-12-04T04:14:31.570656",
        "meta_mean_motion": 14.28399812,
        "meta_eccentricity": 0.00156572,
        "meta_inclination": 98.712,
        "meta_ra_of_asc_node": 40.858,
        "meta_arg_of_pericenter": 203.9801,
        "meta_mean_anomaly": 172.5451,
        "meta_ephemeris_type": 0,
        "meta_classification_type": "U",
        "meta_norad_cat_id": 30608,
        "meta_element_set_no": 999,
        "meta_rev_at_epoch": 97317,
        "meta_bstar": 0.0024406824,
        "meta_mean_motion_dot": 6.07e-05,
        "meta_mean_motion_ddot": 0,
        "tle_line1": "1 30608U 99025AMP 25338.17675429  .00006070  00000+0  24407-2 0  9995",
        "tle_line2": "2 30608  98.7120  40.8580 0015657 203.9801 172.5451 14.28399812973177"
      },
      "geometry": {
        "type": "Point",
        "coordinates": [
          27.891569073077246,
          56.898825763827666
        ]
      }
    },
    {
      "type": "Feature",
      "properties": {
        "norad_id": 30609,
        "name": "FENGYUN 1C DEB",
        "group": "fengyun-1c-debris",
        "lat": 76.88397667215438,
        "lon": -144.5217112681323,
        "alt_km": 762.8515142703254,
        "timestamp": "2025-12-04T19:33:59.880623+00:00",
        "meta_object_name": "FENGYUN 1C DEB",
        "meta_object_id": "1999-025AMQ",
        "meta_epoch": "2025-12-03T17:40:08.930208",
        "meta_mean_motion": 14.11089299,
        "meta_eccentricity": 0.01185737,
        "meta_inclination": 98.5669,
        "meta_ra_of_asc_node": 254.7605,
        "meta_arg_of_pericenter": 78.3605,
        "meta_mean_anomaly": 283.0847,
        "meta_ephemeris_type": 0,
        "meta_classification_type": "U",
        "meta_norad_cat_id": 30609,
        "meta_element_set_no": 999,
        "meta_rev_at_epoch": 95601,
        "meta_bstar": 0.0029124573,
        "meta_mean_motion_dot": 5.562e-05,
        "meta_mean_motion_ddot": 0,
        "tle_line1": "1 30609U 99025AMQ 25337.73621447  .00005562  00000+0  29125-2 0  9995",
        "tle_line2": "2 30609  98.5669 254.7605 0118573  78.3605 283.0847 14.11089299956013"
      },
      "geometry": {
        "type": "Point",
        "coordinates": [
          -144.5217112681323,
          76.88397667215438
        ]
      }
    },
    {
      "type": "Feature",
      "properties": {
        "norad_id": 30612,
        "name": "FENGYUN 1C DEB",
        "group": "fengyun-1c-debris",
        "lat": -47.6961241969461,
        "lon": 136.12774841164926,
        "alt_km": 510.7655764782876,
        "timestamp": "2025-12-04T19:33:59.880632+00:00",
        "meta_object_name": "FENGYUN 1C DEB",
        "meta_object_id": "1999-025AMT",
        "meta_epoch": "2025-12-03T11:41:15.566208",
        "meta_mean_motion": 15.26937126,
        "meta_eccentricity": 0.00354753,
        "meta_inclination": 99.0823,
        "meta_ra_of_asc_node": 324.6375,
        "meta_arg_of_pericenter": 18.5185,
        "meta_mean_anomaly": 112.2083,
        "meta_ephemeris_type": 0,
        "meta_classification_type": "U",
        "meta_norad_cat_id": 30612,
        "meta_element_set_no": 999,
        "meta_rev_at_epoch": 116,
        "meta_bstar": 0.0047834102,
        "meta_mean_motion_dot": 0.00130859,
        "meta_mean_motion_ddot": 0,
        "tle_line1": "1 30612U 99025AMT 25337.48698572  .00130859  00000+0  47834-2 0  9999",
        "tle_line2": "2 30612  99.0823 324.6375 0035475  18.5185 112.2083 15.26937126  1164"
      },
      "geometry": {
        "type": "Point",
        "coordinates": [
          136.12774841164926,
          -47.6961241969461
        ]
      }
    },
    {
      "type": "Feature",
      "properties": {
        "norad_id": 30613,
        "name": "FENGYUN 1C DEB",
        "group": "fengyun-1c-debris",
        "lat": -24.329626535540413,
        "lon": 101.60208990968431,
        "alt_km": 566.1106985369315,
        "timestamp": "2025-12-04T19:33:59.880642+00:00",
        "meta_object_name": "FENGYUN 1C DEB",
        "meta_object_id": "1999-025AMU",
        "meta_epoch": "2025-12-03T07:12:46.253376",
        "meta_mean_motion": 15.14584783,
        "meta_eccentricity": 0.00729989,
        "meta_inclination": 98.3084,
        "meta_ra_of_asc_node": 96.1598,
        "meta_arg_of_pericenter": 198.2659,
        "meta_mean_anomaly": 161.5947,
        "meta_ephemeris_type": 0,
        "meta_classification_type": "U",
        "meta_norad_cat_id": 30613,
        "meta_element_set_no": 999,
        "meta_rev_at_epoch": 99253,
        "meta_bstar": 0.0069533496,
        "meta_mean_motion_dot": 0.00139417,
        "meta_mean_motion_ddot": 0,
        "tle_line1": "1 30613U 99025AMU 25337.30053534  .00139417  00000+0  69533-2 0  9993",
        "tle_line2": "2 30613  98.3084  96.1598 0072998 198.2659 161.5947 15.14584783992537"
      },
      "geometry": {
        "type": "Point",
        "coordinates": [
          101.60208990968431,
          -24.329626535540413
        ]
      }
    }
  ]
}